
HIERARCHY
ROOT Hips
{
    OFFSET 0.00 0.00 0.00
    CHANNELS 6 Xposition Yposition Zposition Zrotation Xrotation Yrotation
    JOINT LeftHip
    {
        OFFSET -1.00 0.00 0.00
        CHANNELS 3 Zrotation Xrotation Yrotation
        End Site
        {
            OFFSET 0.00 -2.00 0.00
        }
    }
    JOINT RightHip
    {
        OFFSET 1.00 0.00 0.00
        CHANNELS 3 Zrotation Xrotation Yrotation
        End Site
        {
            OFFSET 0.00 -2.00 0.00
        }
    }
}

MOTION
Frames: 450
Frame Time: 0.033333
0.00 0.00 0.00 0 0 0 -10 0 0 10 0 0
0.00 0.00 0.00 0 0 0 -9 0 0 9 0 0
0.00 0.00 0.00 0 0 0 -8 0 0 8 0 0
0.00 0.00 0.00 0 0 0 -7 0 0 7 0 0
0.00 0.00 0.00 0 0 0 -6 0 0 6 0 0
0.00 0.00 0.00 0 0 0 -5 0 0 5 0 0
0.00 0.00 0.00 0 0 0 -4 0 0 4 0 0
0.00 0.00 0.00 0 0 0 -3 0 0 3 0 0
0.00 0.00 0.00 0 0 0 -2 0 0 2 0 0
0.00 0.00 0.00 0 0 0 -1 0 0 1 0 0
0.00 0.00 0.00 0 0 0 0 0 0 0 0 0
0.00 0.00 0.00 0 0 0 1 0 0 -1 0 0
0.00 0.00 0.00 0 0 0 2 0 0 -2 0 0
0.00 0.00 0.00 0 0 0 3 0 0 -3 0 0
0.00 0.00 0.00 0 0 0 4 0 0 -4 0 0
0.00 0.00 0.00 0 0 0 5 0 0 -5 0 0
0.00 0.00 0.00 0 0 0 6 0 0 -6 0 0
0.00 0.00 0.00 0 0 0 7 0 0 -7 0 0
0.00 0.00 0.00 0 0 0 8 0 0 -8 0 0
0.00 0.00 0.00 0 0 0 9 0 0 -9 0 0
0.00 0.00 0.00 0 0 0 -10 0 0 10 0 0
0.00 0.00 0.00 0 0 0 -9 0 0 9 0 0
0.00 0.00 0.00 0 0 0 -8 0 0 8 0 0
0.00 0.00 0.00 0 0 0 -7 0 0 7 0 0
0.00 0.00 0.00 0 0 0 -6 0 0 6 0 0
0.00 0.00 0.00 0 0 0 -5 0 0 5 0 0
0.00 0.00 0.00 0 0 0 -4 0 0 4 0 0
0.00 0.00 0.00 0 0 0 -3 0 0 3 0 0
0.00 0.00 0.00 0 0 0 -2 0 0 2 0 0
0.00 0.00 0.00 0 0 0 -1 0 0 1 0 0
0.00 0.00 0.00 0 0 0 0 0 0 0 0 0
0.00 0.00 0.00 0 0 0 1 0 0 -1 0 0
0.00 0.00 0.00 0 0 0 2 0 0 -2 0 0
0.00 0.00 0.00 0 0 0 3 0 0 -3 0 0
0.00 0.00 0.00 0 0 0 4 0 0 -4 0 0
0.00 0.00 0.00 0 0 0 5 0 0 -5 0 0
0.00 0.00 0.00 0 0 0 6 0 0 -6 0 0
0.00 0.00 0.00 0 0 0 7 0 0 -7 0 0
0.00 0.00 0.00 0 0 0 8 0 0 -8 0 0
0.00 0.00 0.00 0 0 0 9 0 0 -9 0 0
0.00 0.00 0.00 0 0 0 -10 0 0 10 0 0
0.00 0.00 0.00 0 0 0 -9 0 0 9 0 0
0.00 0.00 0.00 0 0 0 -8 0 0 8 0 0
0.00 0.00 0.00 0 0 0 -7 0 0 7 0 0
0.00 0.00 0.00 0 0 0 -6 0 0 6 0 0
0.00 0.00 0.00 0 0 0 -5 0 0 5 0 0
0.00 0.00 0.00 0 0 0 -4 0 0 4 0 0
0.00 0.00 0.00 0 0 0 -3 0 0 3 0 0
0.00 0.00 0.00 0 0 0 -2 0 0 2 0 0
0.00 0.00 0.00 0 0 0 -1 0 0 1 0 0
0.00 0.00 0.00 0 0 0 0 0 0 0 0 0
0.00 0.00 0.00 0 0 0 1 0 0 -1 0 0
0.00 0.00 0.00 0 0 0 2 0 0 -2 0 0
0.00 0.00 0.00 0 0 0 3 0 0 -3 0 0
0.00 0.00 0.00 0 0 0 4 0 0 -4 0 0
0.00 0.00 0.00 0 0 0 5 0 0 -5 0 0
0.00 0.00 0.00 0 0 0 6 0 0 -6 0 0
0.00 0.00 0.00 0 0 0 7 0 0 -7 0 0
0.00 0.00 0.00 0 0 0 8 0 0 -8 0 0
0.00 0.00 0.00 0 0 0 9 0 0 -9 0 0
0.00 0.00 0.00 0 0 0 -10 0 0 10 0 0
0.00 0.00 0.00 0 0 0 -9 0 0 9 0 0
0.00 0.00 0.00 0 0 0 -8 0 0 8 0 0
0.00 0.00 0.00 0 0 0 -7 0 0 7 0 0
0.00 0.00 0.00 0 0 0 -6 0 0 6 0 0
0.00 0.00 0.00 0 0 0 -5 0 0 5 0 0
0.00 0.00 0.00 0 0 0 -4 0 0 4 0 0
0.00 0.00 0.00 0 0 0 -3 0 0 3 0 0
0.00 0.00 0.00 0 0 0 -2 0 0 2 0 0
0.00 0.00 0.00 0 0 0 -1 0 0 1 0 0
0.00 0.00 0.00 0 0 0 0 0 0 0 0 0
0.00 0.00 0.00 0 0 0 1 0 0 -1 0 0
0.00 0.00 0.00 0 0 0 2 0 0 -2 0 0
0.00 0.00 0.00 0 0 0 3 0 0 -3 0 0
0.00 0.00 0.00 0 0 0 4 0 0 -4 0 0
0.00 0.00 0.00 0 0 0 5 0 0 -5 0 0
0.00 0.00 0.00 0 0 0 6 0 0 -6 0 0
0.00 0.00 0.00 0 0 0 7 0 0 -7 0 0
0.00 0.00 0.00 0 0 0 8 0 0 -8 0 0
0.00 0.00 0.00 0 0 0 9 0 0 -9 0 0
0.00 0.00 0.00 0 0 0 -10 0 0 10 0 0
0.00 0.00 0.00 0 0 0 -9 0 0 9 0 0
0.00 0.00 0.00 0 0 0 -8 0 0 8 0 0
0.00 0.00 0.00 0 0 0 -7 0 0 7 0 0
0.00 0.00 0.00 0 0 0 -6 0 0 6 0 0
0.00 0.00 0.00 0 0 0 -5 0 0 5 0 0
0.00 0.00 0.00 0 0 0 -4 0 0 4 0 0
0.00 0.00 0.00 0 0 0 -3 0 0 3 0 0
0.00 0.00 0.00 0 0 0 -2 0 0 2 0 0
0.00 0.00 0.00 0 0 0 -1 0 0 1 0 0
0.00 0.00 0.00 0 0 0 0 0 0 0 0 0
0.00 0.00 0.00 0 0 0 1 0 0 -1 0 0
0.00 0.00 0.00 0 0 0 2 0 0 -2 0 0
0.00 0.00 0.00 0 0 0 3 0 0 -3 0 0
0.00 0.00 0.00 0 0 0 4 0 0 -4 0 0
0.00 0.00 0.00 0 0 0 5 0 0 -5 0 0
0.00 0.00 0.00 0 0 0 6 0 0 -6 0 0
0.00 0.00 0.00 0 0 0 7 0 0 -7 0 0
0.00 0.00 0.00 0 0 0 8 0 0 -8 0 0
0.00 0.00 0.00 0 0 0 9 0 0 -9 0 0
0.00 0.00 0.00 0 0 0 -10 0 0 10 0 0
0.00 0.00 0.00 0 0 0 -9 0 0 9 0 0
0.00 0.00 0.00 0 0 0 -8 0 0 8 0 0
0.00 0.00 0.00 0 0 0 -7 0 0 7 0 0
0.00 0.00 0.00 0 0 0 -6 0 0 6 0 0
0.00 0.00 0.00 0 0 0 -5 0 0 5 0 0
0.00 0.00 0.00 0 0 0 -4 0 0 4 0 0
0.00 0.00 0.00 0 0 0 -3 0 0 3 0 0
0.00 0.00 0.00 0 0 0 -2 0 0 2 0 0
0.00 0.00 0.00 0 0 0 -1 0 0 1 0 0
0.00 0.00 0.00 0 0 0 0 0 0 0 0 0
0.00 0.00 0.00 0 0 0 1 0 0 -1 0 0
0.00 0.00 0.00 0 0 0 2 0 0 -2 0 0
0.00 0.00 0.00 0 0 0 3 0 0 -3 0 0
0.00 0.00 0.00 0 0 0 4 0 0 -4 0 0
0.00 0.00 0.00 0 0 0 5 0 0 -5 0 0
0.00 0.00 0.00 0 0 0 6 0 0 -6 0 0
0.00 0.00 0.00 0 0 0 7 0 0 -7 0 0
0.00 0.00 0.00 0 0 0 8 0 0 -8 0 0
0.00 0.00 0.00 0 0 0 9 0 0 -9 0 0
0.00 0.00 0.00 0 0 0 -10 0 0 10 0 0
0.00 0.00 0.00 0 0 0 -9 0 0 9 0 0
0.00 0.00 0.00 0 0 0 -8 0 0 8 0 0
0.00 0.00 0.00 0 0 0 -7 0 0 7 0 0
0.00 0.00 0.00 0 0 0 -6 0 0 6 0 0
0.00 0.00 0.00 0 0 0 -5 0 0 5 0 0
0.00 0.00 0.00 0 0 0 -4 0 0 4 0 0
0.00 0.00 0.00 0 0 0 -3 0 0 3 0 0
0.00 0.00 0.00 0 0 0 -2 0 0 2 0 0
0.00 0.00 0.00 0 0 0 -1 0 0 1 0 0
0.00 0.00 0.00 0 0 0 0 0 0 0 0 0
0.00 0.00 0.00 0 0 0 1 0 0 -1 0 0
0.00 0.00 0.00 0 0 0 2 0 0 -2 0 0
0.00 0.00 0.00 0 0 0 3 0 0 -3 0 0
0.00 0.00 0.00 0 0 0 4 0 0 -4 0 0
0.00 0.00 0.00 0 0 0 5 0 0 -5 0 0
0.00 0.00 0.00 0 0 0 6 0 0 -6 0 0
0.00 0.00 0.00 0 0 0 7 0 0 -7 0 0
0.00 0.00 0.00 0 0 0 8 0 0 -8 0 0
0.00 0.00 0.00 0 0 0 9 0 0 -9 0 0
0.00 0.00 0.00 0 0 0 -10 0 0 10 0 0
0.00 0.00 0.00 0 0 0 -9 0 0 9 0 0
0.00 0.00 0.00 0 0 0 -8 0 0 8 0 0
0.00 0.00 0.00 0 0 0 -7 0 0 7 0 0
0.00 0.00 0.00 0 0 0 -6 0 0 6 0 0
0.00 0.00 0.00 0 0 0 -5 0 0 5 0 0
0.00 0.00 0.00 0 0 0 -4 0 0 4 0 0
0.00 0.00 0.00 0 0 0 -3 0 0 3 0 0
0.00 0.00 0.00 0 0 0 -2 0 0 2 0 0
0.00 0.00 0.00 0 0 0 -1 0 0 1 0 0
0.00 0.00 0.00 0 0 0 0 0 0 0 0 0
0.00 0.00 0.00 0 0 0 1 0 0 -1 0 0
0.00 0.00 0.00 0 0 0 2 0 0 -2 0 0
0.00 0.00 0.00 0 0 0 3 0 0 -3 0 0
0.00 0.00 0.00 0 0 0 4 0 0 -4 0 0
0.00 0.00 0.00 0 0 0 5 0 0 -5 0 0
0.00 0.00 0.00 0 0 0 6 0 0 -6 0 0
0.00 0.00 0.00 0 0 0 7 0 0 -7 0 0
0.00 0.00 0.00 0 0 0 8 0 0 -8 0 0
0.00 0.00 0.00 0 0 0 9 0 0 -9 0 0
0.00 0.00 0.00 0 0 0 -10 0 0 10 0 0
0.00 0.00 0.00 0 0 0 -9 0 0 9 0 0
0.00 0.00 0.00 0 0 0 -8 0 0 8 0 0
0.00 0.00 0.00 0 0 0 -7 0 0 7 0 0
0.00 0.00 0.00 0 0 0 -6 0 0 6 0 0
0.00 0.00 0.00 0 0 0 -5 0 0 5 0 0
0.00 0.00 0.00 0 0 0 -4 0 0 4 0 0
0.00 0.00 0.00 0 0 0 -3 0 0 3 0 0
0.00 0.00 0.00 0 0 0 -2 0 0 2 0 0
0.00 0.00 0.00 0 0 0 -1 0 0 1 0 0
0.00 0.00 0.00 0 0 0 0 0 0 0 0 0
0.00 0.00 0.00 0 0 0 1 0 0 -1 0 0
0.00 0.00 0.00 0 0 0 2 0 0 -2 0 0
0.00 0.00 0.00 0 0 0 3 0 0 -3 0 0
0.00 0.00 0.00 0 0 0 4 0 0 -4 0 0
0.00 0.00 0.00 0 0 0 5 0 0 -5 0 0
0.00 0.00 0.00 0 0 0 6 0 0 -6 0 0
0.00 0.00 0.00 0 0 0 7 0 0 -7 0 0
0.00 0.00 0.00 0 0 0 8 0 0 -8 0 0
0.00 0.00 0.00 0 0 0 9 0 0 -9 0 0
0.00 0.00 0.00 0 0 0 -10 0 0 10 0 0
0.00 0.00 0.00 0 0 0 -9 0 0 9 0 0
0.00 0.00 0.00 0 0 0 -8 0 0 8 0 0
0.00 0.00 0.00 0 0 0 -7 0 0 7 0 0
0.00 0.00 0.00 0 0 0 -6 0 0 6 0 0
0.00 0.00 0.00 0 0 0 -5 0 0 5 0 0
0.00 0.00 0.00 0 0 0 -4 0 0 4 0 0
0.00 0.00 0.00 0 0 0 -3 0 0 3 0 0
0.00 0.00 0.00 0 0 0 -2 0 0 2 0 0
0.00 0.00 0.00 0 0 0 -1 0 0 1 0 0
0.00 0.00 0.00 0 0 0 0 0 0 0 0 0
0.00 0.00 0.00 0 0 0 1 0 0 -1 0 0
0.00 0.00 0.00 0 0 0 2 0 0 -2 0 0
0.00 0.00 0.00 0 0 0 3 0 0 -3 0 0
0.00 0.00 0.00 0 0 0 4 0 0 -4 0 0
0.00 0.00 0.00 0 0 0 5 0 0 -5 0 0
0.00 0.00 0.00 0 0 0 6 0 0 -6 0 0
0.00 0.00 0.00 0 0 0 7 0 0 -7 0 0
0.00 0.00 0.00 0 0 0 8 0 0 -8 0 0
0.00 0.00 0.00 0 0 0 9 0 0 -9 0 0
0.00 0.00 0.00 0 0 0 -10 0 0 10 0 0
0.00 0.00 0.00 0 0 0 -9 0 0 9 0 0
0.00 0.00 0.00 0 0 0 -8 0 0 8 0 0
0.00 0.00 0.00 0 0 0 -7 0 0 7 0 0
0.00 0.00 0.00 0 0 0 -6 0 0 6 0 0
0.00 0.00 0.00 0 0 0 -5 0 0 5 0 0
0.00 0.00 0.00 0 0 0 -4 0 0 4 0 0
0.00 0.00 0.00 0 0 0 -3 0 0 3 0 0
0.00 0.00 0.00 0 0 0 -2 0 0 2 0 0
0.00 0.00 0.00 0 0 0 -1 0 0 1 0 0
0.00 0.00 0.00 0 0 0 0 0 0 0 0 0
0.00 0.00 0.00 0 0 0 1 0 0 -1 0 0
0.00 0.00 0.00 0 0 0 2 0 0 -2 0 0
0.00 0.00 0.00 0 0 0 3 0 0 -3 0 0
0.00 0.00 0.00 0 0 0 4 0 0 -4 0 0
0.00 0.00 0.00 0 0 0 5 0 0 -5 0 0
0.00 0.00 0.00 0 0 0 6 0 0 -6 0 0
0.00 0.00 0.00 0 0 0 7 0 0 -7 0 0
0.00 0.00 0.00 0 0 0 8 0 0 -8 0 0
0.00 0.00 0.00 0 0 0 9 0 0 -9 0 0
0.00 0.00 0.00 0 0 0 -10 0 0 10 0 0
0.00 0.00 0.00 0 0 0 -9 0 0 9 0 0
0.00 0.00 0.00 0 0 0 -8 0 0 8 0 0
0.00 0.00 0.00 0 0 0 -7 0 0 7 0 0
0.00 0.00 0.00 0 0 0 -6 0 0 6 0 0
0.00 0.00 0.00 0 0 0 -5 0 0 5 0 0
0.00 0.00 0.00 0 0 0 -4 0 0 4 0 0
0.00 0.00 0.00 0 0 0 -3 0 0 3 0 0
0.00 0.00 0.00 0 0 0 -2 0 0 2 0 0
0.00 0.00 0.00 0 0 0 -1 0 0 1 0 0
0.00 0.00 0.00 0 0 0 0 0 0 0 0 0
0.00 0.00 0.00 0 0 0 1 0 0 -1 0 0
0.00 0.00 0.00 0 0 0 2 0 0 -2 0 0
0.00 0.00 0.00 0 0 0 3 0 0 -3 0 0
0.00 0.00 0.00 0 0 0 4 0 0 -4 0 0
0.00 0.00 0.00 0 0 0 5 0 0 -5 0 0
0.00 0.00 0.00 0 0 0 6 0 0 -6 0 0
0.00 0.00 0.00 0 0 0 7 0 0 -7 0 0
0.00 0.00 0.00 0 0 0 8 0 0 -8 0 0
0.00 0.00 0.00 0 0 0 9 0 0 -9 0 0
0.00 0.00 0.00 0 0 0 -10 0 0 10 0 0
0.00 0.00 0.00 0 0 0 -9 0 0 9 0 0
0.00 0.00 0.00 0 0 0 -8 0 0 8 0 0
0.00 0.00 0.00 0 0 0 -7 0 0 7 0 0
0.00 0.00 0.00 0 0 0 -6 0 0 6 0 0
0.00 0.00 0.00 0 0 0 -5 0 0 5 0 0
0.00 0.00 0.00 0 0 0 -4 0 0 4 0 0
0.00 0.00 0.00 0 0 0 -3 0 0 3 0 0
0.00 0.00 0.00 0 0 0 -2 0 0 2 0 0
0.00 0.00 0.00 0 0 0 -1 0 0 1 0 0
0.00 0.00 0.00 0 0 0 0 0 0 0 0 0
0.00 0.00 0.00 0 0 0 1 0 0 -1 0 0
0.00 0.00 0.00 0 0 0 2 0 0 -2 0 0
0.00 0.00 0.00 0 0 0 3 0 0 -3 0 0
0.00 0.00 0.00 0 0 0 4 0 0 -4 0 0
0.00 0.00 0.00 0 0 0 5 0 0 -5 0 0
0.00 0.00 0.00 0 0 0 6 0 0 -6 0 0
0.00 0.00 0.00 0 0 0 7 0 0 -7 0 0
0.00 0.00 0.00 0 0 0 8 0 0 -8 0 0
0.00 0.00 0.00 0 0 0 9 0 0 -9 0 0
0.00 0.00 0.00 0 0 0 -10 0 0 10 0 0
0.00 0.00 0.00 0 0 0 -9 0 0 9 0 0
0.00 0.00 0.00 0 0 0 -8 0 0 8 0 0
0.00 0.00 0.00 0 0 0 -7 0 0 7 0 0
0.00 0.00 0.00 0 0 0 -6 0 0 6 0 0
0.00 0.00 0.00 0 0 0 -5 0 0 5 0 0
0.00 0.00 0.00 0 0 0 -4 0 0 4 0 0
0.00 0.00 0.00 0 0 0 -3 0 0 3 0 0
0.00 0.00 0.00 0 0 0 -2 0 0 2 0 0
0.00 0.00 0.00 0 0 0 -1 0 0 1 0 0
0.00 0.00 0.00 0 0 0 0 0 0 0 0 0
0.00 0.00 0.00 0 0 0 1 0 0 -1 0 0
0.00 0.00 0.00 0 0 0 2 0 0 -2 0 0
0.00 0.00 0.00 0 0 0 3 0 0 -3 0 0
0.00 0.00 0.00 0 0 0 4 0 0 -4 0 0
0.00 0.00 0.00 0 0 0 5 0 0 -5 0 0
0.00 0.00 0.00 0 0 0 6 0 0 -6 0 0
0.00 0.00 0.00 0 0 0 7 0 0 -7 0 0
0.00 0.00 0.00 0 0 0 8 0 0 -8 0 0
0.00 0.00 0.00 0 0 0 9 0 0 -9 0 0
0.00 0.00 0.00 0 0 0 -10 0 0 10 0 0
0.00 0.00 0.00 0 0 0 -9 0 0 9 0 0
0.00 0.00 0.00 0 0 0 -8 0 0 8 0 0
0.00 0.00 0.00 0 0 0 -7 0 0 7 0 0
0.00 0.00 0.00 0 0 0 -6 0 0 6 0 0
0.00 0.00 0.00 0 0 0 -5 0 0 5 0 0
0.00 0.00 0.00 0 0 0 -4 0 0 4 0 0
0.00 0.00 0.00 0 0 0 -3 0 0 3 0 0
0.00 0.00 0.00 0 0 0 -2 0 0 2 0 0
0.00 0.00 0.00 0 0 0 -1 0 0 1 0 0
0.00 0.00 0.00 0 0 0 0 0 0 0 0 0
0.00 0.00 0.00 0 0 0 1 0 0 -1 0 0
0.00 0.00 0.00 0 0 0 2 0 0 -2 0 0
0.00 0.00 0.00 0 0 0 3 0 0 -3 0 0
0.00 0.00 0.00 0 0 0 4 0 0 -4 0 0
0.00 0.00 0.00 0 0 0 5 0 0 -5 0 0
0.00 0.00 0.00 0 0 0 6 0 0 -6 0 0
0.00 0.00 0.00 0 0 0 7 0 0 -7 0 0
0.00 0.00 0.00 0 0 0 8 0 0 -8 0 0
0.00 0.00 0.00 0 0 0 9 0 0 -9 0 0
0.00 0.00 0.00 0 0 0 -10 0 0 10 0 0
0.00 0.00 0.00 0 0 0 -9 0 0 9 0 0
0.00 0.00 0.00 0 0 0 -8 0 0 8 0 0
0.00 0.00 0.00 0 0 0 -7 0 0 7 0 0
0.00 0.00 0.00 0 0 0 -6 0 0 6 0 0
0.00 0.00 0.00 0 0 0 -5 0 0 5 0 0
0.00 0.00 0.00 0 0 0 -4 0 0 4 0 0
0.00 0.00 0.00 0 0 0 -3 0 0 3 0 0
0.00 0.00 0.00 0 0 0 -2 0 0 2 0 0
0.00 0.00 0.00 0 0 0 -1 0 0 1 0 0
0.00 0.00 0.00 0 0 0 0 0 0 0 0 0
0.00 0.00 0.00 0 0 0 1 0 0 -1 0 0
0.00 0.00 0.00 0 0 0 2 0 0 -2 0 0
0.00 0.00 0.00 0 0 0 3 0 0 -3 0 0
0.00 0.00 0.00 0 0 0 4 0 0 -4 0 0
0.00 0.00 0.00 0 0 0 5 0 0 -5 0 0
0.00 0.00 0.00 0 0 0 6 0 0 -6 0 0
0.00 0.00 0.00 0 0 0 7 0 0 -7 0 0
0.00 0.00 0.00 0 0 0 8 0 0 -8 0 0
0.00 0.00 0.00 0 0 0 9 0 0 -9 0 0
0.00 0.00 0.00 0 0 0 -10 0 0 10 0 0
0.00 0.00 0.00 0 0 0 -9 0 0 9 0 0
0.00 0.00 0.00 0 0 0 -8 0 0 8 0 0
0.00 0.00 0.00 0 0 0 -7 0 0 7 0 0
0.00 0.00 0.00 0 0 0 -6 0 0 6 0 0
0.00 0.00 0.00 0 0 0 -5 0 0 5 0 0
0.00 0.00 0.00 0 0 0 -4 0 0 4 0 0
0.00 0.00 0.00 0 0 0 -3 0 0 3 0 0
0.00 0.00 0.00 0 0 0 -2 0 0 2 0 0
0.00 0.00 0.00 0 0 0 -1 0 0 1 0 0
0.00 0.00 0.00 0 0 0 0 0 0 0 0 0
0.00 0.00 0.00 0 0 0 1 0 0 -1 0 0
0.00 0.00 0.00 0 0 0 2 0 0 -2 0 0
0.00 0.00 0.00 0 0 0 3 0 0 -3 0 0
0.00 0.00 0.00 0 0 0 4 0 0 -4 0 0
0.00 0.00 0.00 0 0 0 5 0 0 -5 0 0
0.00 0.00 0.00 0 0 0 6 0 0 -6 0 0
0.00 0.00 0.00 0 0 0 7 0 0 -7 0 0
0.00 0.00 0.00 0 0 0 8 0 0 -8 0 0
0.00 0.00 0.00 0 0 0 9 0 0 -9 0 0
0.00 0.00 0.00 0 0 0 -10 0 0 10 0 0
0.00 0.00 0.00 0 0 0 -9 0 0 9 0 0
0.00 0.00 0.00 0 0 0 -8 0 0 8 0 0
0.00 0.00 0.00 0 0 0 -7 0 0 7 0 0
0.00 0.00 0.00 0 0 0 -6 0 0 6 0 0
0.00 0.00 0.00 0 0 0 -5 0 0 5 0 0
0.00 0.00 0.00 0 0 0 -4 0 0 4 0 0
0.00 0.00 0.00 0 0 0 -3 0 0 3 0 0
0.00 0.00 0.00 0 0 0 -2 0 0 2 0 0
0.00 0.00 0.00 0 0 0 -1 0 0 1 0 0
0.00 0.00 0.00 0 0 0 0 0 0 0 0 0
0.00 0.00 0.00 0 0 0 1 0 0 -1 0 0
0.00 0.00 0.00 0 0 0 2 0 0 -2 0 0
0.00 0.00 0.00 0 0 0 3 0 0 -3 0 0
0.00 0.00 0.00 0 0 0 4 0 0 -4 0 0
0.00 0.00 0.00 0 0 0 5 0 0 -5 0 0
0.00 0.00 0.00 0 0 0 6 0 0 -6 0 0
0.00 0.00 0.00 0 0 0 7 0 0 -7 0 0
0.00 0.00 0.00 0 0 0 8 0 0 -8 0 0
0.00 0.00 0.00 0 0 0 9 0 0 -9 0 0
0.00 0.00 0.00 0 0 0 -10 0 0 10 0 0
0.00 0.00 0.00 0 0 0 -9 0 0 9 0 0
0.00 0.00 0.00 0 0 0 -8 0 0 8 0 0
0.00 0.00 0.00 0 0 0 -7 0 0 7 0 0
0.00 0.00 0.00 0 0 0 -6 0 0 6 0 0
0.00 0.00 0.00 0 0 0 -5 0 0 5 0 0
0.00 0.00 0.00 0 0 0 -4 0 0 4 0 0
0.00 0.00 0.00 0 0 0 -3 0 0 3 0 0
0.00 0.00 0.00 0 0 0 -2 0 0 2 0 0
0.00 0.00 0.00 0 0 0 -1 0 0 1 0 0
0.00 0.00 0.00 0 0 0 0 0 0 0 0 0
0.00 0.00 0.00 0 0 0 1 0 0 -1 0 0
0.00 0.00 0.00 0 0 0 2 0 0 -2 0 0
0.00 0.00 0.00 0 0 0 3 0 0 -3 0 0
0.00 0.00 0.00 0 0 0 4 0 0 -4 0 0
0.00 0.00 0.00 0 0 0 5 0 0 -5 0 0
0.00 0.00 0.00 0 0 0 6 0 0 -6 0 0
0.00 0.00 0.00 0 0 0 7 0 0 -7 0 0
0.00 0.00 0.00 0 0 0 8 0 0 -8 0 0
0.00 0.00 0.00 0 0 0 9 0 0 -9 0 0
0.00 0.00 0.00 0 0 0 -10 0 0 10 0 0
0.00 0.00 0.00 0 0 0 -9 0 0 9 0 0
0.00 0.00 0.00 0 0 0 -8 0 0 8 0 0
0.00 0.00 0.00 0 0 0 -7 0 0 7 0 0
0.00 0.00 0.00 0 0 0 -6 0 0 6 0 0
0.00 0.00 0.00 0 0 0 -5 0 0 5 0 0
0.00 0.00 0.00 0 0 0 -4 0 0 4 0 0
0.00 0.00 0.00 0 0 0 -3 0 0 3 0 0
0.00 0.00 0.00 0 0 0 -2 0 0 2 0 0
0.00 0.00 0.00 0 0 0 -1 0 0 1 0 0
0.00 0.00 0.00 0 0 0 0 0 0 0 0 0
0.00 0.00 0.00 0 0 0 1 0 0 -1 0 0
0.00 0.00 0.00 0 0 0 2 0 0 -2 0 0
0.00 0.00 0.00 0 0 0 3 0 0 -3 0 0
0.00 0.00 0.00 0 0 0 4 0 0 -4 0 0
0.00 0.00 0.00 0 0 0 5 0 0 -5 0 0
0.00 0.00 0.00 0 0 0 6 0 0 -6 0 0
0.00 0.00 0.00 0 0 0 7 0 0 -7 0 0
0.00 0.00 0.00 0 0 0 8 0 0 -8 0 0
0.00 0.00 0.00 0 0 0 9 0 0 -9 0 0
0.00 0.00 0.00 0 0 0 -10 0 0 10 0 0
0.00 0.00 0.00 0 0 0 -9 0 0 9 0 0
0.00 0.00 0.00 0 0 0 -8 0 0 8 0 0
0.00 0.00 0.00 0 0 0 -7 0 0 7 0 0
0.00 0.00 0.00 0 0 0 -6 0 0 6 0 0
0.00 0.00 0.00 0 0 0 -5 0 0 5 0 0
0.00 0.00 0.00 0 0 0 -4 0 0 4 0 0
0.00 0.00 0.00 0 0 0 -3 0 0 3 0 0
0.00 0.00 0.00 0 0 0 -2 0 0 2 0 0
0.00 0.00 0.00 0 0 0 -1 0 0 1 0 0
0.00 0.00 0.00 0 0 0 0 0 0 0 0 0
0.00 0.00 0.00 0 0 0 1 0 0 -1 0 0
0.00 0.00 0.00 0 0 0 2 0 0 -2 0 0
0.00 0.00 0.00 0 0 0 3 0 0 -3 0 0
0.00 0.00 0.00 0 0 0 4 0 0 -4 0 0
0.00 0.00 0.00 0 0 0 5 0 0 -5 0 0
0.00 0.00 0.00 0 0 0 6 0 0 -6 0 0
0.00 0.00 0.00 0 0 0 7 0 0 -7 0 0
0.00 0.00 0.00 0 0 0 8 0 0 -8 0 0
0.00 0.00 0.00 0 0 0 9 0 0 -9 0 0
0.00 0.00 0.00 0 0 0 -10 0 0 10 0 0
0.00 0.00 0.00 0 0 0 -9 0 0 9 0 0
0.00 0.00 0.00 0 0 0 -8 0 0 8 0 0
0.00 0.00 0.00 0 0 0 -7 0 0 7 0 0
0.00 0.00 0.00 0 0 0 -6 0 0 6 0 0
0.00 0.00 0.00 0 0 0 -5 0 0 5 0 0
0.00 0.00 0.00 0 0 0 -4 0 0 4 0 0
0.00 0.00 0.00 0 0 0 -3 0 0 3 0 0
0.00 0.00 0.00 0 0 0 -2 0 0 2 0 0
0.00 0.00 0.00 0 0 0 -1 0 0 1 0 0
0.00 0.00 0.00 0 0 0 0 0 0 0 0 0
0.00 0.00 0.00 0 0 0 1 0 0 -1 0 0
0.00 0.00 0.00 0 0 0 2 0 0 -2 0 0
0.00 0.00 0.00 0 0 0 3 0 0 -3 0 0
0.00 0.00 0.00 0 0 0 4 0 0 -4 0 0
0.00 0.00 0.00 0 0 0 5 0 0 -5 0 0
0.00 0.00 0.00 0 0 0 6 0 0 -6 0 0
0.00 0.00 0.00 0 0 0 7 0 0 -7 0 0
0.00 0.00 0.00 0 0 0 8 0 0 -8 0 0
0.00 0.00 0.00 0 0 0 9 0 0 -9 0 0
0.00 0.00 0.00 0 0 0 -10 0 0 10 0 0
0.00 0.00 0.00 0 0 0 -9 0 0 9 0 0
0.00 0.00 0.00 0 0 0 -8 0 0 8 0 0
0.00 0.00 0.00 0 0 0 -7 0 0 7 0 0
0.00 0.00 0.00 0 0 0 -6 0 0 6 0 0
0.00 0.00 0.00 0 0 0 -5 0 0 5 0 0
0.00 0.00 0.00 0 0 0 -4 0 0 4 0 0
0.00 0.00 0.00 0 0 0 -3 0 0 3 0 0
0.00 0.00 0.00 0 0 0 -2 0 0 2 0 0
0.00 0.00 0.00 0 0 0 -1 0 0 1 0 0
